$$SOE
2459580.500000000, A.D. 2022-Jan-01 00:00:00.0000, -1.304107630524789E+08, 3.131776273159075E+08, -3.402194055845065E+07,
2459587.500000000, A.D. 2022-Jan-08 00:00:00.0000, -1.419218589033069E+08, 3.095965728982782E+08, -3.459638282279533E+07,
2459594.500000000, A.D. 2022-Jan-15 00:00:00.0000, -1.532613011899168E+08, 3.056408944556350E+08, -3.512896302021720E+07,
2459601.500000000, A.D. 2022-Jan-22 00:00:00.0000, -1.644175984763530E+08, 3.013198306409793E+08, -3.561954888646770E+07,
2459608.500000000, A.D. 2022-Jan-29 00:00:00.0000, -1.753797711458980E+08, 2.966428759195580E+08, -3.606806575549701E+07,
2459615.500000000, A.D. 2022-Feb-05 00:00:00.0000, -1.861373491652296E+08, 2.916197518391326E+08, -3.647449390008523E+07,
2459622.500000000, A.D. 2022-Feb-12 00:00:00.0000, -1.966803663910389E+08, 2.862603786059877E+08, -3.683886616343816E+07,
2459629.500000000, A.D. 2022-Feb-19 00:00:00.0000, -2.069993529103553E+08, 2.805748493610055E+08, -3.716126558415844E+07,
2459636.500000000, A.D. 2022-Feb-26 00:00:00.0000, -2.170853268709139E+08, 2.745734064497610E+08, -3.744182296934235E+07,
2459643.500000000, A.D. 2022-Mar-05 00:00:00.0000, -2.269297857724402E+08, 2.682664190660527E+08, -3.768071449164961E+07,
2459650.500000000, A.D. 2022-Mar-12 00:00:00.0000, -2.365246971197783E+08, 2.616643621851231E+08, -3.787815934396611E+07,
2459657.500000000, A.D. 2022-Mar-19 00:00:00.0000, -2.458624884825684E+08, 2.547777967872007E+08, -3.803441746214773E+07,
2459664.500000000, A.D. 2022-Mar-26 00:00:00.0000, -2.549360370474568E+08, 2.476173513310443E+08, -3.814978732345759E+07,
2459671.500000000, A.D. 2022-Apr-02 00:00:00.0000, -2.637386586957135E+08, 2.401937043819741E+08, -3.822460383559918E+07,
2459678.500000000, A.D. 2022-Apr-09 00:00:00.0000, -2.722640964269044E+08, 2.325175683553498E+08, -3.825923634414665E+07,
2459685.500000000, A.D. 2022-Apr-16 00:00:00.0000, -2.805065078564712E+08, 2.245996749821484E+08, -3.825408674011233E+07,
2459692.500000000, A.D. 2022-Apr-23 00:00:00.0000, -2.884604531351637E+08, 2.164507635314111E+08, -3.820958746481971E+07,
2459699.500000000, A.D. 2022-Apr-30 00:00:00.0000, -2.961208852336041E+08, 2.080815694964011E+08, -3.812619942651262E+07,
2459706.500000000, A.D. 2022-May-07 00:00:00.0000, -3.034831395889797E+08, 1.995028117218734E+08, -3.800441027134885E+07,
2459713.500000000, A.D. 2022-May-14 00:00:00.0000, -3.105429217756496E+08, 1.907251809533778E+08, -3.784473288590763E+07,
2459720.500000000, A.D. 2022-May-21 00:00:00.0000, -3.172962952844041E+08, 1.817593305119494E+08, -3.764770388290156E+07,
2459727.500000000, A.D. 2022-May-28 00:00:00.0000, -3.237396699364921E+08, 1.726158680861096E+08, -3.741388210506085E+07,
2459734.500000000, A.D. 2022-Jun-04 00:00:00.0000, -3.298697906931322E+08, 1.633053482782770E+08, -3.714384719705525E+07,
2459741.500000000, A.D. 2022-Jun-11 00:00:00.0000, -3.356837267484815E+08, 1.538382658568052E+08, -3.683819825679468E+07,
2459748.500000000, A.D. 2022-Jun-18 00:00:00.0000, -3.411788608961701E+08, 1.442250496773393E+08, -3.649755256690983E+07,
2459755.500000000, A.D. 2022-Jun-25 00:00:00.0000, -3.463528791641838E+08, 1.344760571931598E+08, -3.612254441012157E+07,
2459762.500000000, A.D. 2022-Jul-02 00:00:00.0000, -3.512037606025470E+08, 1.246015694427415E+08, -3.571382398311143E+07,
2459769.500000000, A.D. 2022-Jul-09 00:00:00.0000, -3.557297668497869E+08, 1.146117866425645E+08, -3.527205642557186E+07,
2459776.500000000, A.D. 2022-Jul-16 00:00:00.0000, -3.599294315520639E+08, 1.045168254214134E+08, -3.479792086955475E+07,
2459783.500000000, A.D. 2022-Jul-23 00:00:00.0000, -3.638015518467319E+08, 9.432671773627731E+07, -3.429210930182940E+07,
2459790.500000000, A.D. 2022-Jul-30 00:00:00.0000, -3.673451818343630E+08, 8.405140807937753E+07, -3.375532551841380E+07,
2459797.500000000, A.D. 2022-Aug-06 00:00:00.0000, -3.705596244451981E+08, 7.370074958760247E+07, -3.318828444414965E+07,
2459804.500000000, A.D. 2022-Aug-13 00:00:00.0000, -3.734444225233793E+08, 6.328450177039668E+07, -3.259171151248735E+07,
2459811.500000000, A.D. 2022-Aug-20 00:00:00.0000, -3.759993507016239E+08, 5.281232931471691E+07, -3.196634200018570E+07,
2459818.500000000, A.D. 2022-Aug-27 00:00:00.0000, -3.782244080029232E+08, 4.229380120768717E+07, -3.131292038096914E+07,
2459825.500000000, A.D. 2022-Sep-03 00:00:00.0000, -3.801198109226065E+08, 3.173839003668404E+07, -3.063219972775092E+07,
2459832.500000000, A.D. 2022-Sep-10 00:00:00.0000, -3.816859868995841E+08, 2.115547146189088E+07, -2.992494116727770E+07,
2459839.500000000, A.D. 2022-Sep-17 00:00:00.0000, -3.829235681455843E+08, 1.055432383208015E+07, -2.919191338777083E+07,
2459846.500000000, A.D. 2022-Sep-24 00:00:00.0000, -3.838333857694389E+08, -5.587213246793300E+04, -2.843389220712977E+07,
2459853.500000000, A.D. 2022-Oct-01 00:00:00.0000, -3.844164639520862E+08, -1.066603363484691E+07, -2.765166022321627E+07,
2459860.500000000, A.D. 2022-Oct-08 00:00:00.0000, -3.846740137573543E+08, -2.126717557297174E+07, -2.684600653808871E+07,
2459867.500000000, A.D. 2022-Oct-15 00:00:00.0000, -3.846074274994171E+08, -3.185040860981726E+07, -2.601772636954151E+07,
2459874.500000000, A.D. 2022-Oct-22 00:00:00.0000, -3.842182758386015E+08, -4.240693725045577E+07, -2.516762048498507E+07,
2459881.500000000, A.D. 2022-Oct-29 00:00:00.0000, -3.835083051036144E+08, -5.292806054359637E+07, -2.429649489770388E+07,
2459888.500000000, A.D. 2022-Nov-05 00:00:00.0000, -3.824794327384068E+08, -6.340517268631893E+07, -2.340516079328180E+07,
2459895.500000000, A.D. 2022-Nov-12 00:00:00.0000, -3.811337428334454E+08, -7.382976228200883E+07, -2.249443440122971E+07,
2459902.500000000, A.D. 2022-Nov-19 00:00:00.0000, -3.794734824561602E+08, -8.419341122251080E+07, -2.156513682284880E+07,
2459909.500000000, A.D. 2022-Nov-26 00:00:00.0000, -3.775010585147263E+08, -9.448779360689783E+07, -2.061809387086718E+07,
2459916.500000000, A.D. 2022-Dec-03 00:00:00.0000, -3.752190349837567E+08, -1.047046747215337E+08, -1.965413593541733E+07,
2459923.500000000, A.D. 2022-Dec-10 00:00:00.0000, -3.726301304388956E+08, -1.148359100756659E+08, -1.867409787700794E+07,
2459930.500000000, A.D. 2022-Dec-17 00:00:00.0000, -3.697372158675752E+08, -1.248734445308336E+08, -1.767881894885488E+07,
2459937.500000000, A.D. 2022-Dec-24 00:00:00.0000, -3.665433126389386E+08, -1.348093116031732E+08, -1.666914276222073E+07,
2459944.500000000, A.D. 2022-Dec-31 00:00:00.0000, -3.630515902681281E+08, -1.446356328438483E+08, -1.564591731713806E+07,
2459951.500000000, A.D. 2023-Jan-07 00:00:00.0000, -3.592653638449386E+08, -1.543446163472296E+08, -1.460999502951961E+07,
2459958.500000000, A.D. 2023-Jan-14 00:00:00.0000, -3.551880930860904E+08, -1.639285539019137E+08, -1.356223253212204E+07,
2459965.500000000, A.D. 2023-Jan-21 00:00:00.0000, -3.508233836495232E+08, -1.733798199702174E+08, -1.250349044834217E+07,
2459972.500000000, A.D. 2023-Jan-28 00:00:00.0000, -3.461749870391604E+08, -1.826908727042159E+08, -1.143463349019522E+07,
2459979.500000000, A.D. 2023-Feb-04 00:00:00.0000, -3.412467993039291E+08, -1.918542539802310E+08, -1.035653061231937E+07,
2459986.500000000, A.D. 2023-Feb-11 00:00:00.0000, -3.360428603182350E+08, -2.008625886541207E+08, -9.270055071332887E+06,
2459993.500000000, A.D. 2023-Feb-18 00:00:00.0000, -3.305673536986923E+08, -2.097085838711966E+08, -8.176084450583324E+06,
2460000.500000000, A.D. 2023-Feb-25 00:00:00.0000, -3.248246070879393E+08, -2.183850286046305E+08, -7.075500686511204E+06,
2460007.500000000, A.D. 2023-Mar-04 00:00:00.0000, -3.188190926984435E+08, -2.268847934150386E+08, -5.969190103247687E+06,
2460014.500000000, A.D. 2023-Mar-11 00:00:00.0000, -3.125554280824243E+08, -2.352008304412692E+08, -4.858043456551880E+06,
2460021.500000000, A.D. 2023-Mar-18 00:00:00.0000, -3.060383770747923E+08, -2.433261736822593E+08, -3.742955993866935E+06,
2460028.500000000, A.D. 2023-Mar-25 00:00:00.0000, -2.992728506994606E+08, -2.512539396278928E+08, -2.624827551407740E+06,
2460035.500000000, A.D. 2023-Apr-01 00:00:00.0000, -2.922639076081544E+08, -2.589773278563478E+08, -1.504562693456352E+06,
2460042.500000000, A.D. 2023-Apr-08 00:00:00.0000, -2.850167546603161E+08, -2.664896203835939E+08, -3.830707356773317E+05,
2460049.500000000, A.D. 2023-Apr-15 00:00:00.0000, -2.775367499734497E+08, -2.737841808821563E+08, 7.387344730319381E+05,
2460056.500000000, A.D. 2023-Apr-22 00:00:00.0000, -2.698294066279727E+08, -2.808544568340124E+08, 1.859934596152008E+06,
2460063.500000000, A.D. 2023-Apr-29 00:00:00.0000, -2.619003942866450E+08, -2.876939823778985E+08, 2.979606617394358E+06,
2460070.500000000, A.D. 2023-May-06 00:00:00.0000, -2.537555404826764E+08, -2.942963800804573E+08, 4.096822719604358E+06,
2460077.500000000, A.D. 2023-May-13 00:00:00.0000, -2.454008325441374E+08, -3.006553625339968E+08, 5.210650252955437E+06,
2460084.500000000, A.D. 2023-May-20 00:00:00.0000, -2.368424199089272E+08, -3.067647342824929E+08, 6.320151732126981E+06,
2460091.500000000, A.D. 2023-May-27 00:00:00.0000, -2.280866166245663E+08, -3.126183941190244E+08, 7.424384843377709E+06,
2460098.500000000, A.D. 2023-Jun-03 00:00:00.0000, -2.191399039643687E+08, -3.182103377452484E+08, 8.522402459609702E+06,
2460105.500000000, A.D. 2023-Jun-10 00:00:00.0000, -2.100089331270617E+08, -3.235346608239663E+08, 9.613252661817223E+06,
2460112.500000000, A.D. 2023-Jun-17 00:00:00.0000, -2.007005279223426E+08, -3.285855625008941E+08, 1.069597875593896E+07,
2460119.500000000, A.D. 2023-Jun-24 00:00:00.0000, -1.912216871129738E+08, -3.333573493535251E+08, 1.176961926259039E+07,
2460126.500000000, A.D. 2023-Jul-01 00:00:00.0000, -1.815795861478672E+08, -3.378444389498945E+08, 1.283320792630227E+07,
2460133.500000000, A.D. 2023-Jul-08 00:00:00.0000, -1.717815799429998E+08, -3.420413622053671E+08, 1.388577396673973E+07,
2460140.500000000, A.D. 2023-Jul-15 00:00:00.0000, -1.618352079659003E+08, -3.459427673810171E+08, 1.492634245910682E+07,
$$EOE